{"type": "FeatureCollection", "features": [ {"type": "Feature", "properties": {"norad_id": 61183, "name": "GSAT0226 (GALILEO 31)", "group": "galileo", "lat": -55.11114626475115, "lon": 142.2756039666968, "alt_km": 23230.279551800762, "timestamp": "2025-12-09T11:33:55.062922+00:00", "meta": {"OBJECT_NAME": "GSAT0226 (GALILEO 31)", "OBJECT_ID": "2024-167B", "EPOCH": "2025-12-09T04:40:23.432160", "MEAN_MOTION": 1.70473456, "ECCENTRICITY": 8.07e-05, "INCLINATION": 55.2405, "RA_OF_ASC_NODE": 226.5334, "ARG_OF_PERICENTER": 119.9636, "MEAN_ANOMALY": 337.1316, "EPHEMERIS_TYPE": 0, "CLASSIFICATION_TYPE": "U", "NORAD_CAT_ID": 61183, "ELEMENT_SET_NO": 999, "REV_AT_EPOCH": 761, "BSTAR": 0, "MEAN_MOTION_DOT": 1.2e-07, "MEAN_MOTION_DDOT": 0}, "tle": {"line1": "1 61183U 24167B   25343.19471565  .00000012  00000+0  00000+0 0  9995", "line2": "2 61183  55.2405 226.5334 0000807 119.9636 337.1316  1.70473456  7612"}}, "geometry": {"type": "Point", "coordinates": [142.2756039666968, -55.11114626475115]}}]}